FLOCK 3P-58             
1 41977U 17008AF  17303.53036762  .00001803  00000-0  78871-4 0  9997
2 41977  97.4818   4.4548 0009846  82.8245 277.4111 15.23331793 39134
FLOCK 3P-57             
1 41978U 17008AG  17303.52306513  .00002912  00000-0  12529-3 0  9990
2 41978  97.4817   4.4653 0009923  81.7502 278.4860 15.23396944 38973
FLOCK 3P-75             
1 41979U 17008AH  17303.52203545  .00001901  00000-0  82863-4 0  9998
2 41979  97.4839   4.5455 0010127  84.3777 275.8614 15.23383871 39121
FLOCK 3P-70             
1 41980U 17008AJ  17303.52055258  .00001789  00000-0  78114-4 0  9994
2 41980  97.4840   4.5498 0010072  83.8661 276.3723 15.23409705 38971
FLOCK 3P-73             
1 41981U 17008AK  17303.52894234  .00001825  00000-0  79724-4 0  9999
2 41981  97.4837   4.5397 0010321  84.5411 275.7003 15.23367305 39103
FLOCK 3P-88             
1 41982U 17008AL  17303.51797658  .00002878  00000-0  12394-3 0  9999
2 41982  97.4838   4.5444 0010148  84.2040 276.0353 15.23375075 38070
FLOCK 3P-85             
1 41983U 17008AM  17303.57031346  .00003523  00000-0  15077-3 0  9990
2 41983  97.4841   4.6343 0010096  87.3762 272.8630 15.23431814 38987
FLOCK 3P-79             
1 41984U 17008AN  17303.57137026  .00001982  00000-0  86193-4 0  9998
2 41984  97.4840   4.6323 0009751  86.9354 273.2999 15.23430166 38985
FLOCK 3P-86             
1 41985U 17008AP  17303.57215050  .00001829  00000-0  79821-4 0  9993
2 41985  97.4836   4.6265 0009708  86.0607 274.1740 15.23402545 38973
FLOCK 3P-36             
1 41986U 17008AQ  17303.57445274  .00001792  00000-0  78254-4 0  9995
2 41986  97.4823   4.5616 0009439  84.4800 275.7513 15.23406605 38467
FLOCK 3P-30             
1 41987U 17008AR  17303.56559645  .00001911  00000-0  83230-4 0  9996
2 41987  97.4819   4.5746 0009354  85.3302 274.9002 15.23412980 38939
FLOCK 3P-34             
1 41988U 17008AS  17303.57806509  .00001785  00000-0  77979-4 0  9994
2 41988  97.4818   4.5446 0009505  82.4687 277.7629 15.23393782 38460
FLOCK 3P-35             
1 41989U 17008AT  17303.58025398  .00002735  00000-0  11787-3 0  9995
2 41989  97.4817   4.5405 0009662  82.2506 277.9827 15.23394494 38460
FLOCK 3P-33             
1 41990U 17008AU  17303.57550485  .00001771  00000-0  77395-4 0  9993
2 41990  97.4816   4.5521 0009280  83.1511 277.0781 15.23391438 38467
LEMUR-2-SATCHMO         
1 41991U 17008AV  17303.56769498  .00002097  00000-0  92989-4 0  9997
2 41991  97.4811   4.4017 0009546  85.3002 274.9324 15.22695087 38450
LEMUR-2-MIA-GRACE       
1 41992U 17008AW  17303.46909152  .00002738  00000-0  11916-3 0  9992
2 41992  97.4816   4.3882 0009462  85.8527 274.3791 15.23068169 38446
LEMUR-2-SMITA-SHARAD    
1 41993U 17008AX  17303.55071247  .00001990  00000-0  87979-4 0  9990
2 41993  97.4812   4.4262 0009486  85.1094 275.1225 15.22848563 38459
LEMUR-2-SPIRE-MINIONS   
1 41994U 17008AY  17303.54180140  .00002698  00000-0  11758-3 0  9990
2 41994  97.4813   4.4380 0009499  84.9781 275.2540 15.23028045 38453
LEMUR-2-RDEATON         
1 41995U 17008AZ  17303.61113088  .00001969  00000-0  86917-4 0  9996
2 41995  97.4814   4.5017 0010605  96.0837 264.1608 15.22903513 39140
LEMUR-2-NOGUECORREIG    
1 41996U 17008BA  17303.52874407  .00002370  00000-0  10349-3 0  9998
2 41996  97.4818   4.4629 0010525  97.0882 263.1552 15.23072939 38354
LEMUR-2-JOBANPUTRA      
1 41997U 17008BB  17303.57732703  .00002066  00000-0  90270-4 0  9990
2 41997  97.4819   4.5525 0010486  96.8300 263.4130 15.23203495 38459
LEMUR-2-TACHIKOMA       
1 41998U 17008BC  17303.61498471  .00001931  00000-0  85565-4 0  9998
2 41998  97.4813   4.4949 0010514  96.4821 263.7613 15.22804326 38389
BGUSAT                  
1 41999U 17008BD  17303.56216039  .00003222  00000-0  13806-3 0  9994
2 41999  97.4825   4.5858 0010405  98.1100 262.1318 15.23448991 38457
DIDO-2                  
1 42000U 17008BE  17303.56000930  .00001727  00000-0  77177-4 0  9999
2 42000  97.4806   4.4117 0010469  96.9632 263.2796 15.22647731 38457
FLOCK 3P-49             
1 42001U 17008BF  17303.56195069  .00001963  00000-0  85411-4 0  9990
2 42001  97.4820   4.5729 0010062  98.2995 261.9383 15.23416025 38986
FLOCK 3P-67             
1 42002U 17008BG  17303.56686763  .00003772  00000-0  16103-3 0  9998
2 42002  97.4819   4.5614 0009966  97.7051 262.5318 15.23473974 39146
FLOCK 3P-68             
1 42003U 17008BH  17303.56965689  .00001797  00000-0  78495-4 0  9994
2 42003  97.4817   4.5534 0010154  96.4192 263.8201 15.23390526 38784
FLOCK 3P-41             
1 42004U 17008BJ  17303.55711205  .00001955  00000-0  85170-4 0  9991
2 42004  97.4817   4.5639 0009852  98.6307 261.6046 15.23381055 38988
FLOCK 3P-45             
1 42005U 17008BK  17303.56243497  .00003589  00000-0  15337-3 0  9998
2 42005  97.4819   4.5663 0009823  98.5562 261.6789 15.23471111 39144
FLOCK 3P-48             
1 42006U 17008BL  17303.56036118  .00002491  00000-0  10760-3 0  9995
2 42006  97.4821   4.5741 0009796  99.0171 261.2175 15.23403131 38923
FLOCK 3P-43             
1 42007U 17008BM  17303.55861292  .00004468  00000-0  19065-3 0  9997
2 42007  97.4819   4.5668 0009634  99.3176 260.9151 15.23391326 39145
FLOCK 3P-42             
1 42008U 17008BN  17303.55770391  .00001777  00000-0  77658-4 0  9990
2 42008  97.4816   4.5629 0009782  98.8602 261.3743 15.23398438 39066
FLOCK 3P-61             
1 42009U 17008BP  17303.55626741  .00001796  00000-0  78482-4 0  9997
2 42009  97.4815   4.5697 0009635 100.3870 259.8453 15.23383001 39110
FLOCK 3P-40             
1 42010U 17008BQ  17303.61550385  .00001898  00000-0  82707-4 0  9994
2 42010  97.4808   4.6257 0009558 100.6997 259.5317 15.23411114 38385
FLOCK 3P-16             
1 42011U 17008BR  17303.53711102  .00002014  00000-0  87704-4 0  9995
2 42011  97.4813   4.5804 0009267 101.4255 258.8023 15.23363841 38314
FLOCK 3P-14             
1 42012U 17008BS  17303.54174729  .00003189  00000-0  13674-3 0  9993
2 42012  97.4820   4.5853 0009512 104.0028 256.2267 15.23441362 38932
FLOCK 3P-53             
1 42013U 17008BT  17303.61102556  .00004187  00000-0  17835-3 0  9993
2 42013  97.4809   4.6209 0009295 101.4856 258.7425 15.23489340 38946
FLOCK 3P-54             
1 42014U 17008BU  17303.60940036  .00001778  00000-0  77721-4 0  9990
2 42014  97.4814   4.6364 0009243 102.2603 257.9669 15.23384543 39151
PEASSS                  
1 42015U 17008BV  17303.45523485  .00001999  00000-0  87134-4 0  9993
2 42015  97.4802   4.5160 0008340 104.0216 256.1949 15.23344637 38936
AL-FARABI 1             
1 42016U 17008BW  17303.56448371  .00002409  00000-0  10360-3 0  9999
2 42016  97.4806   4.6861 0008221 104.4191 255.7959 15.23597848 39070
NAYIF-1 (EO-88)         
1 42017U 17008BX  17303.56190664  .00002387  00000-0  10263-3 0  9996
2 42017  97.4805   4.6874 0008199 104.6398 255.5748 15.23615877 39098
FLOCK 3P-23             
1 42018U 17008BY  17303.60790700  .00001758  00000-0  76904-4 0  9995
2 42018  97.4810   4.4776 0010384  79.9260 280.3147 15.23375716 37918
FLOCK 3P-76             
1 42019U 17008BZ  17303.57857982  .00001985  00000-0  86357-4 0  9993
2 42019  97.4842   4.6311 0010149  85.4409 274.7987 15.23401917 38976
FLOCK 3P-69             
1 42020U 17008CA  17303.57702940  .00001740  00000-0  76118-4 0  9991
2 42020  97.4842   4.6325 0009990  84.4860 275.7516 15.23386953 37863
FLOCK 3P-84             
1 42021U 17008CB  17303.51961632  .00001800  00000-0  78674-4 0  9997
2 42021  97.4837   4.5418 0010389  84.2883 275.9538 15.23371756 38971
FLOCK 3P-59             
1 42022U 17008CC  17303.52218852  .00003940  00000-0  16843-3 0  9994
2 42022  97.4819   4.4682 0009773  85.0085 275.2267 15.23403305 37991
FLOCK 3P-32             
1 42023U 17008CD  17303.45831537  .00001917  00000-0  83539-4 0  9997
2 42023  97.4818   4.4028 0009776  81.7859 278.4486 15.23388490 39122
FLOCK 3P-71             
1 42024U 17008CE  17303.53924008  .00003326  00000-0  14329-3 0  9999
2 42024  97.4848   4.5350 0010160  84.9420 275.2976 15.23244970 38002
FLOCK 3P-77             
1 42025U 17008CF  17303.57957830  .00001754  00000-0  76666-4 0  9999
2 42025  97.4840   4.6208 0010062  85.8656 274.3731 15.23395154 38987
FLOCK 3P-80             
1 42026U 17008CG  17303.69564135  .00001744  00000-0  76262-4 0  9996
2 42026  97.4839   4.7679 0009654  85.8974 274.3366 15.23392015 37141
FLOCK 3P-66             
1 42027U 17008CH  17303.56879730  .00002011  00000-0  87418-4 0  9996
2 42027  97.4820   4.5642 0010120  95.9507 264.2884 15.23413352 39091
FLOCK 3P-65             
1 42028U 17008CJ  17303.56682378  .00001870  00000-0  81551-4 0  9991
2 42028  97.4817   4.5661 0009978  96.0374 264.2000 15.23393600 38993
FLOCK 3P-50             
1 42029U 17008CK  17303.56350312  .00001771  00000-0  77366-4 0  9991
2 42029  97.4823   4.5773 0009850  98.2298 262.0056 15.23408821 38318
FLOCK 3P-52             
1 42030U 17008CL  17303.56502876  .00002738  00000-0  11786-3 0  9994
2 42030  97.4819   4.5643 0009914  97.3099 262.9264 15.23434726 39089
FLOCK 3P-46             
1 42031U 17008CM  17303.55960390  .00001756  00000-0  76761-4 0  9997
2 42031  97.4814   4.5650 0009831  98.0927 262.1425 15.23395944 39145
FLOCK 3P-47             
1 42032U 17008CN  17303.56125926  .00004259  00000-0  18181-3 0  9999
2 42032  97.4816   4.5618 0009806  98.6832 261.5516 15.23401045 38968
FLOCK 3P-44             
1 42033U 17008CP  17303.55430327  .00001873  00000-0  81648-4 0  9991
2 42033  97.4819   4.5779 0009759 101.0199 259.2136 15.23416866 37713
FLOCK 3P-64             
1 42034U 17008CQ  17303.55388442  .00001803  00000-0  78755-4 0  9990
2 42034  97.4815   4.5653 0009679 100.2358 259.9971 15.23391057 39136
FLOCK 3P-63             
1 42035U 17008CR  17303.61765944  .00001890  00000-0  82300-4 0  9991
2 42035  97.4814   4.6292 0009680 100.1886 260.0442 15.23433152 37118
